SL-14 R/B               
1 16792U 86046B   26051.09285531  .00000382  00000+0  41255-4 0  9999
2 16792  82.4796  96.8130 0021577 287.2005  72.6849 14.85572103123790
SL-14 R/B               
1 16882U 86055B   26051.21777721  .00000468  00000+0  51131-4 0  9999
2 16882  82.5229 143.0928 0019670  34.0130 355.3259 14.85624286116776
AJISAI (EGS)            
1 16908U 86061A   26051.12793118 -.00000078  00000+0  13503-3 0  9991
2 16908  50.0084 147.3505 0011234 241.7498 186.0502 12.44515359465819
COSMOS 1812             
1 17295U 87003A   26051.12965065  .00421183  78075-4  68214-3 0  9994
2 17295  82.4737 215.6792 0003987 296.9261  63.1611 16.03407897141651
SL-14 R/B               
1 17567U 87024B   26051.13268117  .00000391  00000+0  41802-4 0  9991
2 17567  82.5271 109.2674 0017216 322.8674  37.1350 14.86114453 85527
COSMOS 1833             
1 17589U 87027A   26051.09210039 -.00000070  00000+0 -11874-4 0  9995
2 17589  70.9231   3.0006 0024842 238.6037 121.2655 14.13057276  7838
SL-16 R/B               
1 17590U 87027B   26051.11675526  .00000267  00000+0  15621-3 0  9995
2 17590  71.0039 313.5262 0004380 174.6792 185.4379 14.17164944 12851
SL-14 R/B               
1 17912U 87038B   26051.18597225  .00000416  00000+0  45492-4 0  9997
2 17912  82.5032 313.2947 0018180 219.1558 140.8344 14.85351924 76638
COSMOS 1844             
1 17973U 87041A   26051.14593817  .00000218  00000+0  13826-3 0  9992
2 17973  70.8983  71.1808 0029130  45.6464 314.7037 14.14550628  1106
SL-14 R/B               
1 18153U 87055B   26050.89657396  .00000516  00000+0  56532-4 0  9995
2 18153  82.5014   5.7966 0022259  73.5313 286.8347 14.85605551 67297
COSMOS 1867             
1 18187U 87060A   26051.11558653 -.00000022  00000+0  29353-4 0  9994
2 18187  65.0125 355.9189 0014233 277.6036  82.3432 14.31500054 17429
SL-14 R/B               
1 18749U 88001B   26050.89062492  .00000474  00000+0  52058-4 0  9997
2 18749  82.5118 212.0993 0016773 299.6857  60.2689 14.85504146 39384
