CCSDS_OMM_VERS = 2.0
CREATION_DATE  = 
ORIGINATOR     = 

OBJECT_NAME    = SL-14 R/B
OBJECT_ID      = 1986-046B
CENTER_NAME    = EARTH
REF_FRAME      = TEME
TIME_SYSTEM    = UTC
MEAN_ELEMENT_THEORY = SGP/SGP4

EPOCH          = 2026-02-20T02:13:42.698784
MEAN_MOTION    = 14.85572103
ECCENTRICITY   = .0021577
INCLINATION    = 82.4796
RA_OF_ASC_NODE = 96.8130
ARG_OF_PERICENTER = 287.2005
MEAN_ANOMALY   = 72.6849

EPHEMERIS_TYPE = 0
CLASSIFICATION_TYPE = U
NORAD_CAT_ID   = 16792
ELEMENT_SET_NO = 999
REV_AT_EPOCH   = 12379
BSTAR          = .41255E-4
MEAN_MOTION_DOT = .382E-5
MEAN_MOTION_DDOT = 0

CCSDS_OMM_VERS = 2.0
CREATION_DATE  = 
ORIGINATOR     = 

OBJECT_NAME    = SL-14 R/B
OBJECT_ID      = 1986-055B
CENTER_NAME    = EARTH
REF_FRAME      = TEME
TIME_SYSTEM    = UTC
MEAN_ELEMENT_THEORY = SGP/SGP4

EPOCH          = 2026-02-20T05:13:35.950944
MEAN_MOTION    = 14.85624286
ECCENTRICITY   = .001967
INCLINATION    = 82.5229
RA_OF_ASC_NODE = 143.0928
ARG_OF_PERICENTER = 34.0130
MEAN_ANOMALY   = 355.3259

EPHEMERIS_TYPE = 0
CLASSIFICATION_TYPE = U
NORAD_CAT_ID   = 16882
ELEMENT_SET_NO = 999
REV_AT_EPOCH   = 11677
BSTAR          = .51131E-4
MEAN_MOTION_DOT = .468E-5
MEAN_MOTION_DDOT = 0

CCSDS_OMM_VERS = 2.0
CREATION_DATE  = 
ORIGINATOR     = 

OBJECT_NAME    = AJISAI (EGS)
OBJECT_ID      = 1986-061A
CENTER_NAME    = EARTH
REF_FRAME      = TEME
TIME_SYSTEM    = UTC
MEAN_ELEMENT_THEORY = SGP/SGP4

EPOCH          = 2026-02-20T03:04:13.253952
MEAN_MOTION    = 12.44515359
ECCENTRICITY   = .0011234
INCLINATION    = 50.0084
RA_OF_ASC_NODE = 147.3505
ARG_OF_PERICENTER = 241.7498
MEAN_ANOMALY   = 186.0502

EPHEMERIS_TYPE = 0
CLASSIFICATION_TYPE = U
NORAD_CAT_ID   = 16908
ELEMENT_SET_NO = 999
REV_AT_EPOCH   = 46581
BSTAR          = .13503E-3
MEAN_MOTION_DOT = -.78E-6
MEAN_MOTION_DDOT = 0

CCSDS_OMM_VERS = 2.0
CREATION_DATE  = 
ORIGINATOR     = 

OBJECT_NAME    = COSMOS 1812
OBJECT_ID      = 1987-003A
CENTER_NAME    = EARTH
REF_FRAME      = TEME
TIME_SYSTEM    = UTC
MEAN_ELEMENT_THEORY = SGP/SGP4

EPOCH          = 2026-02-20T03:06:41.816160
MEAN_MOTION    = 16.03407897
ECCENTRICITY   = .0003987
INCLINATION    = 82.4737
RA_OF_ASC_NODE = 215.6792
ARG_OF_PERICENTER = 296.9261
MEAN_ANOMALY   = 63.1611

EPHEMERIS_TYPE = 0
CLASSIFICATION_TYPE = U
NORAD_CAT_ID   = 17295
ELEMENT_SET_NO = 999
REV_AT_EPOCH   = 14165
BSTAR          = .68214E-3
MEAN_MOTION_DOT = .421183E-2
MEAN_MOTION_DDOT = .78075E-4

CCSDS_OMM_VERS = 2.0
CREATION_DATE  = 
ORIGINATOR     = 

OBJECT_NAME    = SL-14 R/B
OBJECT_ID      = 1987-024B
CENTER_NAME    = EARTH
REF_FRAME      = TEME
TIME_SYSTEM    = UTC
MEAN_ELEMENT_THEORY = SGP/SGP4

EPOCH          = 2026-02-20T03:11:03.653088
MEAN_MOTION    = 14.86114453
ECCENTRICITY   = .0017216
INCLINATION    = 82.5271
RA_OF_ASC_NODE = 109.2674
ARG_OF_PERICENTER = 322.8674
MEAN_ANOMALY   = 37.1350

EPHEMERIS_TYPE = 0
CLASSIFICATION_TYPE = U
NORAD_CAT_ID   = 17567
ELEMENT_SET_NO = 999
REV_AT_EPOCH   = 8552
BSTAR          = .41802E-4
MEAN_MOTION_DOT = .391E-5
MEAN_MOTION_DDOT = 0

CCSDS_OMM_VERS = 2.0
CREATION_DATE  = 
ORIGINATOR     = 

OBJECT_NAME    = COSMOS 1833
OBJECT_ID      = 1987-027A
CENTER_NAME    = EARTH
REF_FRAME      = TEME
TIME_SYSTEM    = UTC
MEAN_ELEMENT_THEORY = SGP/SGP4

EPOCH          = 2026-02-20T02:12:37.473696
MEAN_MOTION    = 14.13057276
ECCENTRICITY   = .0024842
INCLINATION    = 70.9231
RA_OF_ASC_NODE = 3.0006
ARG_OF_PERICENTER = 238.6037
MEAN_ANOMALY   = 121.2655

EPHEMERIS_TYPE = 0
CLASSIFICATION_TYPE = U
NORAD_CAT_ID   = 17589
ELEMENT_SET_NO = 999
REV_AT_EPOCH   = 783
BSTAR          = -.11874E-4
MEAN_MOTION_DOT = -.7E-6
MEAN_MOTION_DDOT = 0

CCSDS_OMM_VERS = 2.0
CREATION_DATE  = 
ORIGINATOR     = 

OBJECT_NAME    = SL-16 R/B
OBJECT_ID      = 1987-027B
CENTER_NAME    = EARTH
REF_FRAME      = TEME
TIME_SYSTEM    = UTC
MEAN_ELEMENT_THEORY = SGP/SGP4

EPOCH          = 2026-02-20T02:48:07.654464
MEAN_MOTION    = 14.17164944
ECCENTRICITY   = .000438
INCLINATION    = 71.0039
RA_OF_ASC_NODE = 313.5262
ARG_OF_PERICENTER = 174.6792
MEAN_ANOMALY   = 185.4379

EPHEMERIS_TYPE = 0
CLASSIFICATION_TYPE = U
NORAD_CAT_ID   = 17590
ELEMENT_SET_NO = 999
REV_AT_EPOCH   = 1285
BSTAR          = .15621E-3
MEAN_MOTION_DOT = .267E-5
MEAN_MOTION_DDOT = 0

CCSDS_OMM_VERS = 2.0
CREATION_DATE  = 
ORIGINATOR     = 

OBJECT_NAME    = SL-14 R/B
OBJECT_ID      = 1987-038B
CENTER_NAME    = EARTH
REF_FRAME      = TEME
TIME_SYSTEM    = UTC
MEAN_ELEMENT_THEORY = SGP/SGP4

EPOCH          = 2026-02-20T04:27:48.002400
MEAN_MOTION    = 14.85351924
ECCENTRICITY   = .001818
INCLINATION    = 82.5032
RA_OF_ASC_NODE = 313.2947
ARG_OF_PERICENTER = 219.1558
MEAN_ANOMALY   = 140.8344

EPHEMERIS_TYPE = 0
CLASSIFICATION_TYPE = U
NORAD_CAT_ID   = 17912
ELEMENT_SET_NO = 999
REV_AT_EPOCH   = 7663
BSTAR          = .45492E-4
MEAN_MOTION_DOT = .416E-5
MEAN_MOTION_DDOT = 0

CCSDS_OMM_VERS = 2.0
CREATION_DATE  = 
ORIGINATOR     = 

OBJECT_NAME    = COSMOS 1844
OBJECT_ID      = 1987-041A
CENTER_NAME    = EARTH
REF_FRAME      = TEME
TIME_SYSTEM    = UTC
MEAN_ELEMENT_THEORY = SGP/SGP4

EPOCH          = 2026-02-20T03:30:09.057888
MEAN_MOTION    = 14.14550628
ECCENTRICITY   = .002913
INCLINATION    = 70.8983
RA_OF_ASC_NODE = 71.1808
ARG_OF_PERICENTER = 45.6464
MEAN_ANOMALY   = 314.7037

EPHEMERIS_TYPE = 0
CLASSIFICATION_TYPE = U
NORAD_CAT_ID   = 17973
ELEMENT_SET_NO = 999
REV_AT_EPOCH   = 110
BSTAR          = .13826E-3
MEAN_MOTION_DOT = .218E-5
MEAN_MOTION_DDOT = 0

CCSDS_OMM_VERS = 2.0
CREATION_DATE  = 
ORIGINATOR     = 

OBJECT_NAME    = SL-14 R/B
OBJECT_ID      = 1987-055B
CENTER_NAME    = EARTH
REF_FRAME      = TEME
TIME_SYSTEM    = UTC
MEAN_ELEMENT_THEORY = SGP/SGP4

EPOCH          = 2026-02-19T21:31:03.990144
MEAN_MOTION    = 14.85605551
ECCENTRICITY   = .0022259
INCLINATION    = 82.5014
RA_OF_ASC_NODE = 5.7966
ARG_OF_PERICENTER = 73.5313
MEAN_ANOMALY   = 286.8347

EPHEMERIS_TYPE = 0
CLASSIFICATION_TYPE = U
NORAD_CAT_ID   = 18153
ELEMENT_SET_NO = 999
REV_AT_EPOCH   = 6729
BSTAR          = .56532E-4
MEAN_MOTION_DOT = .516E-5
MEAN_MOTION_DDOT = 0

CCSDS_OMM_VERS = 2.0
CREATION_DATE  = 
ORIGINATOR     = 

OBJECT_NAME    = COSMOS 1867
OBJECT_ID      = 1987-060A
CENTER_NAME    = EARTH
REF_FRAME      = TEME
TIME_SYSTEM    = UTC
MEAN_ELEMENT_THEORY = SGP/SGP4

EPOCH          = 2026-02-20T02:46:26.676192
MEAN_MOTION    = 14.31500054
ECCENTRICITY   = .0014233
INCLINATION    = 65.0125
RA_OF_ASC_NODE = 355.9189
ARG_OF_PERICENTER = 277.6036
MEAN_ANOMALY   = 82.3432

EPHEMERIS_TYPE = 0
CLASSIFICATION_TYPE = U
NORAD_CAT_ID   = 18187
ELEMENT_SET_NO = 999
REV_AT_EPOCH   = 1742
BSTAR          = .29353E-4
MEAN_MOTION_DOT = -.22E-6
MEAN_MOTION_DDOT = 0

CCSDS_OMM_VERS = 2.0
CREATION_DATE  = 
ORIGINATOR     = 

OBJECT_NAME    = SL-14 R/B
OBJECT_ID      = 1988-001B
CENTER_NAME    = EARTH
REF_FRAME      = TEME
TIME_SYSTEM    = UTC
MEAN_ELEMENT_THEORY = SGP/SGP4

EPOCH          = 2026-02-19T21:22:29.993088
MEAN_MOTION    = 14.85504146
ECCENTRICITY   = .0016773
INCLINATION    = 82.5118
RA_OF_ASC_NODE = 212.0993
ARG_OF_PERICENTER = 299.6857
MEAN_ANOMALY   = 60.2689

EPHEMERIS_TYPE = 0
CLASSIFICATION_TYPE = U
NORAD_CAT_ID   = 18749
ELEMENT_SET_NO = 999
REV_AT_EPOCH   = 3938
BSTAR          = .52058E-4
MEAN_MOTION_DOT = .474E-5
MEAN_MOTION_DDOT = 0

